[{"OBJECT_NAME":"STARLINK-33855","OBJECT_ID":"2025-124U","EPOCH":"2026-03-09T12:03:02.119104","MEAN_MOTION":15.27587961,"ECCENTRICITY":0.00018487,"INCLINATION":43.0009,"RA_OF_ASC_NODE":122.5973,"ARG_OF_PERICENTER":278.4552,"MEAN_ANOMALY":81.609,"EPHEMERIS_TYPE":0,"CLASSIFICATION_TYPE":"U","NORAD_CAT_ID":64335,"ELEMENT_SET_NO":999,"REV_AT_EPOCH":4175,"BSTAR":0.00073988121,"MEAN_MOTION_DOT":0.00020159,"MEAN_MOTION_DDOT":0},{"OBJECT_NAME":"FENGYUN 1C DEB","OBJECT_ID":"1999-025BCE","EPOCH":"2026-03-09T20:27:54.391104","MEAN_MOTION":15.38307136,"ECCENTRICITY":0.00917966,"INCLINATION":98.5506,"RA_OF_ASC_NODE":34.4945,"ARG_OF_PERICENTER":39.9911,"MEAN_ANOMALY":320.8043,"EPHEMERIS_TYPE":0,"CLASSIFICATION_TYPE":"U","NORAD_CAT_ID":30988,"ELEMENT_SET_NO":999,"REV_AT_EPOCH":875,"BSTAR":0.0023570074,"MEAN_MOTION_DOT":0.00103953,"MEAN_MOTION_DDOT":0}]
